NORAD_CAT_ID,OBJECT_NAME,OBJECT_TYPE,EPOCH,MEAN_MOTION,ECCENTRICITY,INCLINATION,RA_OF_ASC_NODE,ARG_OF_PERICENTER,MEAN_ANOMALY,BSTAR,MEAN_MOTION_DOT,MEAN_MOTION_DDOT,TLE_LINE0,TLE_LINE1,TLE_LINE2,SEMIMAJOR_AXIS,PERIOD,APOGEE,PERIGEE,DECAYED
49732.0,STARLINK-3246,PAYLOAD,2022-07-28 08:36:31,15.08832174,0.0001575999999999,53.2183,326.312,55.6587,304.4554,2.0331e-05,3.6e-07,0.0,0 STARLINK-3246,1 49732U 21115J   22209.35869306  .00000036  00000-0  20331-4 0  9992,2 49732  53.2183 326.3120 0001576  55.6587 304.4554 15.08832174 36060,6917.904,95.438,540.86,538.679,0.0
49732.0,STARLINK-3246,PAYLOAD,2022-07-28 18:08:49,15.08835344,0.0001527,53.2182,324.5281,54.0516,306.0618,4.0729e-05,3.6000000000000007e-06,0.0,0 STARLINK-3246,1 49732U 21115J   22209.75613136  .00000360  00000-0  40729-4 0  9997,2 49732  53.2182 324.5281 0001527  54.0516 306.0618 15.08835344 37239,6917.895,95.438,540.816,538.703,0.0
49732.0,STARLINK-3246,PAYLOAD,2022-07-29 08:27:17,15.08842935,0.000151,53.2183,321.8515,54.1157,305.9975,2.804e-05,1.58e-06,0.0,0 STARLINK-3246,1 49732U 21115J   22210.35228698  .00000158  00000-0  28040-4 0  9997,2 49732  53.2183 321.8515 0001510  54.1157 305.9975 15.08842935 36219,6917.871,95.437,540.781,538.692,0.0
49732.0,STARLINK-3246,PAYLOAD,2022-07-29 17:59:36,15.088435999999998,0.0001524,53.2183,320.0675,56.1851,303.9287,1.9707e-05,2.6e-07,0.0,0 STARLINK-3246,1 49732U 21115J   22210.74972586  .00000026  00000-0  19707-4 0  9996,2 49732  53.2183 320.0675 0001524  56.1851 303.9287 15.08843600 36275,6917.869000000002,95.437,540.789,538.68,0.0
49732.0,STARLINK-3246,PAYLOAD,2022-07-30 08:18:05,15.08827914,0.0001508,53.2182,317.3912,54.332,305.7813,-1.2577e-05,-4.88e-06,0.0,0 STARLINK-3246,1 49732U 21115J   22211.34589864 -.00000488  00000-0 -12577-4 0  9998,2 49732  53.2182 317.3912 0001508  54.3320 305.7813 15.08827914 37478,6917.917,95.438,540.826,538.739,0.0
49732.0,STARLINK-3246,PAYLOAD,2022-07-30 19:25:47,15.08835279,0.0001527,53.218,315.3095,54.258,305.8554,1.0495e-05,-1.21e-06,0.0,0 STARLINK-3246,1 49732U 21115J   22211.80957502 -.00000121  00000-0  10495-4 0  9997,2 49732  53.2180 315.3095 0001527  54.2580 305.8554 15.08835279 36435,6917.895,95.438,540.816,538.703,0.0
49732.0,STARLINK-3246,PAYLOAD,2022-07-31 12:55:01,15.08841885,0.0001546,53.2178,312.0382,56.3829,303.731,4.3864e-06,-2.18e-06,0.0,0 STARLINK-3246,1 49732U 21115J   22212.53821140 -.00000218  00000-0  43864-5 0  9990,2 49732  53.2178 312.0382 0001546  56.3829 303.7310 15.08841885 36544,6917.875,95.437,540.809,538.67,0.0
49732.0,STARLINK-3246,PAYLOAD,2022-08-01 12:45:47,15.08845176,0.0001593,53.2177,307.5779,56.8846,303.2299,0.00011144,1.486e-05,0.0,0 STARLINK-3246,1 49732U 21115J   22213.53180480  .00001486  00000-0  11144-3 0  9997,2 49732  53.2177 307.5779 0001593  56.8846 303.2299 15.08845176 36692,6917.865,95.437,540.832,538.628,0.0
49732.0,STARLINK-3246,PAYLOAD,2022-08-01 23:53:30,15.0883794,0.0001588,53.2174,305.4967,54.3783,305.7357,2.8382e-05,1.64e-06,0.0,0 STARLINK-3246,1 49732U 21115J   22213.99549141  .00000164  00000-0  28382-4 0  9995,2 49732  53.2174 305.4967 0001588  54.3783 305.7357 15.08837940 37875,6917.887,95.438,540.85,538.653,0.0
49732.0,STARLINK-3246,PAYLOAD,2022-08-02 12:36:35,15.08838936,0.000159,53.217,303.1173,56.6055,303.5089,9.7116e-06,-1.33e-06,0.0,0 STARLINK-3246,1 49732U 21115J   22214.52541144 -.00000133  00000-0  97116-5 0  9999,2 49732  53.2170 303.1173 0001590  56.6055 303.5089 15.08838936 36845,6917.884,95.438,540.849,538.649,0.0
49732.0,STARLINK-3246,PAYLOAD,2022-08-03 10:51:58,15.08846804,0.0001571,53.2172,298.9551,53.6244,306.4893,1.3485e-05,-7.3e-07,0.0,0 STARLINK-3246,1 49732U 21115J   22215.45276403 -.00000073  00000-0  13485-4 0  9994,2 49732  53.2172 298.9551 0001571  53.6244 306.4893 15.08846804 38091,6917.86,95.437,540.811,538.638,0.0
49732.0,STARLINK-3246,PAYLOAD,2022-08-03 12:27:22,15.08842606,0.0001746,53.218,298.659,59.8314,300.2851,-3.3482e-05,-8.21e-06,0.0,0 STARLINK-3246,1 49732U 21115J   22215.51900803 -.00000821  00000-0 -33482-4 0  9990,2 49732  53.2180 298.6590 0001746  59.8314 300.2851 15.08842606 38104,6917.871999999999,95.437,540.945,538.53,0.0
49732.0,STARLINK-3246,PAYLOAD,2022-08-04 10:42:46,15.0883228,0.000164,53.2173,294.4946,53.6258,306.4885,7.899400000000001e-06,-1.62e-06,0.0,0 STARLINK-3246,1 49732U 21115J   22216.44637659 -.00000162  00000-0  78994-5 0  9994,2 49732  53.2173 294.4946 0001640  53.6258 306.4885 15.08832280 38244,6917.904,95.438,540.904,538.634,0.0
49732.0,STARLINK-3246,PAYLOAD,2022-08-04 12:18:10,15.08834145,0.0001631999999999,53.2173,294.1973,52.681,307.433,-2.5378e-06,-3.28e-06,0.0,0 STARLINK-3246,1 49732U 21115J   22216.51261617 -.00000328  00000-0 -25378-5 0  9992,2 49732  53.2173 294.1973 0001632  52.6810 307.4330 15.08834145 37141,6917.898,95.438,540.8919999999998,538.634,0.0
49732.0,STARLINK-3246,PAYLOAD,2022-08-04 17:04:19,15.08834879,0.0001629999999999,53.2171,293.3056,52.9596,307.1545,2.9129e-06,-2.42e-06,0.0,0 STARLINK-3246,1 49732U 21115J   22216.71133622 -.00000242  00000-0  29129-5 0  9990,2 49732  53.2171 293.3056 0001630  52.9596 307.1545 15.08834879 37176,6917.896,95.438,540.889,538.633,0.0
49732.0,STARLINK-3246,PAYLOAD,2022-08-05 04:12:01,15.08842825,0.000171,53.217,291.2237,53.9809,306.1341,-2.6811e-05,-7.15e-06,0.0,0 STARLINK-3246,1 49732U 21115J   22217.17501414 -.00000715  00000-0 -26811-4 0  9999,2 49732  53.2170 291.2237 0001710  53.9809 306.1341 15.08842825 38354,6917.871999999999,95.437,540.92,538.554,0.0
49732.0,STARLINK-3246,PAYLOAD,2022-08-05 10:33:33,15.08842531,0.0001655,53.217,290.0342,54.6976,305.4171,2.1177e-05,4.9e-07,0.0,0 STARLINK-3246,1 49732U 21115J   22217.43997221  .00000049  00000-0  21177-4 0  9991,2 49732  53.2170 290.0342 0001655  54.6976 305.4171 15.08842531 37287,6917.873000000001,95.437,540.883,538.5930000000002,0.0
49732.0,STARLINK-3246,PAYLOAD,2022-08-05 13:44:19,15.08843988,0.0001712,53.217,289.4395,60.9584,299.1579,5.3001e-06,-2.04e-06,0.0,0 STARLINK-3246,1 49732U 21115J   22217.57245178 -.00000204  00000-0  53001-5 0  9999,2 49732  53.2170 289.4395 0001712  60.9584 299.1579 15.08843988 37307,6917.868,95.437,540.918,538.549,0.0
49732.0,STARLINK-3246,PAYLOAD,2022-08-06 11:59:44,15.08832282,0.0001712,53.217,285.2762,53.6475,306.4675,3.8829000000000006e-06,-2.26e-06,0.0,0 STARLINK-3246,1 49732U 21115J   22218.49982192 -.00000226  00000-0  38829-5 0  9990,2 49732  53.2170 285.2762 0001712  53.6475 306.4675 15.08832282 38559,6917.904,95.438,540.953,538.585,0.0
49732.0,STARLINK-3246,PAYLOAD,2022-08-07 10:15:08,15.08841255,0.0001751999999999,53.2174,281.1131,54.3791,305.7364,2.3792e-06,-2.5e-06,0.0,0 STARLINK-3246,1 49732U 21115J   22219.42717893 -.00000250  00000-0  23792-5 0  9998,2 49732  53.2174 281.1131 0001752  54.3791 305.7364 15.08841255 38693,6917.877,95.437,540.9540000000002,538.53,0.0
49732.0,STARLINK-3246,PAYLOAD,2022-08-07 13:25:54,15.08842462,0.0001671,53.2169,280.5183,53.3791,306.7355,1.2297e-05,-9.2e-07,0.0,0 STARLINK-3246,1 49732U 21115J   22219.55965769 -.00000092  00000-0  12297-4 0  9990,2 49732  53.2169 280.5183 0001671  53.3791 306.7355 15.08842462 37608,6917.873000000001,95.437,540.894,538.582,0.0
49732.0,STARLINK-3246,PAYLOAD,2022-08-08 10:05:54,15.08849016,0.000167,53.2165,276.6523,53.1788,306.9357,0.00018613,2.676e-05,0.0,0 STARLINK-3246,1 49732U 21115J   22220.42076700  .00002676  00000-0  18613-3 0  9992,2 49732  53.2165 276.6523 0001670  53.1788 306.9357 15.08849016 37731,6917.853,95.437,540.873,538.563,0.0
49732.0,STARLINK-3246,PAYLOAD,2022-08-08 21:13:35,15.08853806,0.0001693,53.2164,274.5707,53.5375,306.5773,0.00019244,2.777e-05,0.0,0 STARLINK-3246,1 49732U 21115J   22220.88444128  .00002777  00000-0  19244-3 0  9998,2 49732  53.2164 274.5707 0001693  53.5375 306.5773 15.08853806 37800,6917.8380000000025,95.437,540.874,538.5319999999998,0.0
49732.0,STARLINK-3246,PAYLOAD,2022-08-09 09:56:41,15.08846197,0.000177,53.2169,272.1924,53.898,306.2176,9.2101e-05,1.178e-05,0.0,0 STARLINK-3246,1 49732U 21115J   22221.41436672  .00001178  00000-0  92101-4 0  9991,2 49732  53.2169 272.1924 0001770  53.8980 306.2176 15.08846197 38991,6917.861,95.437,540.951,538.502,0.0
49732.0,STARLINK-3246,PAYLOAD,2022-08-10 03:25:57,15.08832368,0.000182,53.2166,268.9219,54.5111,305.6051,-0.00012398,-2.26e-05,0.0,0 STARLINK-3246,1 49732U 21115J   22222.14302130 -.00002260  00000-0 -12398-3 0  9997,2 49732  53.2166 268.9219 0001820  54.5111 305.6051 15.08832368 39102,6917.904,95.438,541.028,538.51,0.0
49732.0,STARLINK-3246,PAYLOAD,2022-08-11 11:13:40,15.08841052,0.0001894,53.2156,262.9749,47.2046,312.9105,-0.00022408,-3.853e-05,0.0,0 STARLINK-3246,1 49732U 21115J   22223.46782523 -.00003853  00000-0 -22408-3 0  9993,2 49732  53.2156 262.9749 0001894  47.2046 312.9105 15.08841052 38199,6917.877,95.437,541.052,538.432,0.0
49732.0,STARLINK-3246,PAYLOAD,2022-08-11 14:24:26,15.08845216,0.0001740999999999,53.2159,262.3791,54.4193,305.6962,-0.00025043,-4.272e-05,0.0,0 STARLINK-3246,1 49732U 21115J   22223.60030281 -.00004272  00000-0 -25043-3 0  9990,2 49732  53.2159 262.3791 0001741  54.4193 305.6962 15.08845216 39329,6917.864000000001,95.437,540.934,538.525,0.0
49732.0,STARLINK-3246,PAYLOAD,2022-08-12 01:32:08,15.08822709,0.000158,53.2166,260.2966,52.1499,307.9636,0.00011942,1.612e-05,0.0,0 STARLINK-3246,1 49732U 21115J   22224.06399236  .00001612  00000-0  11942-3 0  9995,2 49732  53.2166 260.2966 0001580  52.1499 307.9636 15.08822709 39395,6917.933000000001,95.439,540.891,538.705,0.0
49732.0,STARLINK-3246,PAYLOAD,2022-08-12 09:29:04,15.08827542,0.000172,53.2163,258.8103,51.2918,308.8228,0.00015499,2.179e-05,0.0,0 STARLINK-3246,1 49732U 21115J   22224.39519284  .00002179  00000-0  15499-3 0  9998,2 49732  53.2163 258.8103 0001720  51.2918 308.8228 15.08827542 38330,6917.918000000002,95.438,540.9730000000002,538.594,0.0
